STARLINK-2022           
1 47643U 21012Z   23237.42168442  .00008775  00000+0  60712-3 0  9993
2 47643  53.0523 254.2900 0001294  90.0404 270.0733 15.06408974140505
